BEIDOU-2 G8             
1 44231U 19027A   26169.92351219 -.00000254  00000+0  00000+0 0  9999
2 44231   1.6632  74.4969 0010153 281.9068  27.7518  1.00270233 26092
COSMOS 2534 [GLONASS-M] 
1 44299U 19030A   26167.15041896  .00000077  00000+0  00000+0 0  9999
2 44299  64.3685 192.6516 0013389 275.0852 148.6554  2.13102184 54908
BEIDOU-3 IGSO-2         
1 44337U 19035A   26169.88675894 -.00000097  00000+0  00000+0 0  9993
2 44337  55.2463 158.8478 0039664 216.5160 330.6306  1.00265889 25689
NAVSTAR 78 (USA 293)    
1 44506U 19056A   26169.64883098 -.00000089  00000+0  00000+0 0  9996
2 44506  55.6361 331.0838 0062276 197.6239 165.2029  2.00569581 50100
BEIDOU-3 M24            
1 44542U 19061A   26169.31634865  .00000056  00000+0  00000+0 0  9995
2 44542  54.3963 182.6897 0008331 358.6257   1.3978  1.86229078 45812
BEIDOU-3 M23            
1 44543U 19061B   26167.55603885  .00000067  00000+0  00000+0 0  9990
2 44543  54.3947 182.7174 0005670 338.0060 193.4228  1.86227264 45783
EUTELSAT 5 WEST B       
1 44624U 19067A   26169.89393269 -.00000049  00000+0  00000+0 0  9998
2 44624   0.0627 348.8684 0003017  98.9715 136.1233  1.00269969 24454
BEIDOU-3 M22            
1 44793U 19078A   26167.54530678 -.00000069  00000+0  00000+0 0  9996
2 44793  53.9366 299.8507 0006347  50.5966 309.4493  1.86227179 44634
BEIDOU-3 M21            
1 44794U 19078B   26169.29611751 -.00000076  00000+0  00000+0 0  9991
2 44794  53.9076 299.7502 0004064  49.2520 310.7784  1.86227678 44678
COSMOS 2544 [GLONASS-M] 
1 44850U 19088A   26169.43716075 -.00000023  00000+0  00000+0 0  9998
2 44850  65.5663  73.6893 0013127 258.8621 101.0278  2.13102753 50745
BEIDOU-3 M19            
1 44864U 19090A   26169.30061566 -.00000056  00000+0  00000+0 0  9996
2 44864  56.5601  62.7540 0017907 298.0064 262.3772  1.86231158 44257
BEIDOU-3 M20            
1 44865U 19090B   26169.67527745 -.00000058  00000+0  00000+0 0  9995
2 44865  56.5620  62.7761 0015615 312.2190 228.9431  1.86231125 44240
BEIDOU-3 G2             
1 45344U 20017A   26169.98207466 -.00000148  00000+0  00000+0 0  9998
2 45344   2.8683  47.3874 0002028  33.2073 260.2461  1.00271728 23275
COSMOS 2545 [GLONASS-M] 
1 45358U 20018A   26167.28584185 -.00000055  00000+0  00000+0 0  9998
2 45358  64.3556 312.4510 0008397 230.0424 129.8687  2.13102431 48644
BEIDOU-3 G3             
1 45807U 20040A   26169.98805469 -.00000360  00000+0  00000+0 0  9991
2 45807   2.4525  67.4510 0002358 336.5337 329.3952  1.00265450 22083
NAVSTAR 79 (USA 304)    
1 45854U 20041A   26165.55605578 -.00000064  00000+0  00000+0 0  9993
2 45854  56.6678  29.0455 0063716 204.6721  21.4099  2.00558471 43987
GALAXY 30 (G-30)        
1 46114U 20056C   26169.65628435  .00000030  00000+0  00000+0 0  9993
2 46114   0.0165 349.8313 0002166  96.1871 292.1283  1.00272111 21306
COSMOS 2547 [GLONASS-K] 
1 46805U 20075A   26169.35243093  .00000057  00000+0  00000+0 0  9990
2 46805  64.5997 192.4366 0009320 239.7975 120.1588  2.13100014 43938
NAVSTAR 80 (USA 309)    
1 46826U 20078A   26169.83468736  .00000028  00000+0  00000+0 0  9990
2 46826  53.9794 210.7115 0073606 207.3113 204.4520  2.00564831 41541
NAVSTAR 81 (USA 319)    
1 48859U 21054A   26167.95784770 -.00000087  00000+0  00000+0 0  9999
2 48859  55.1744 332.4683 0025342 228.5515  94.2637  2.00568788 36740
QZS-1R (MICHIBIKI-1R)   
1 49336U 21096A   26169.67274185 -.00000287  00000+0  00000+0 0  9993
2 49336  37.4655  79.5604 0754676 271.8345 291.5952  1.00254899 17024
GSAT0223 (GALILEO 27)   
1 49809U 21116A   26168.28632796 -.00000089  00000+0  00000+0 0  9993
2 49809  57.1604 341.6715 0001514 187.4025 353.2654  1.70475765 28189
GSAT0224 (GALILEO 28)   
1 49810U 21116B   26168.98509303 -.00000091  00000+0  00000+0 0  9992
2 49810  57.1613 341.6514 0001177 159.9709 202.1698  1.70475877 28225
COSMOS 2557 [GLONASS-K] 
1 52984U 22075A   26169.04745899 -.00000057  00000+0  00000+0 0  9995
2 52984  64.2982 314.4552 0010271 274.5611  85.3098  2.13102015 30733
COSMOS 2559 [GLONASS-K] 
1 54031U 22130A   26169.33634979 -.00000058  00000+0  00000+0 0  9991
2 54031  64.2705 314.5280 0012585 178.2040 181.7898  2.13101593 28710
COSMOS 2564 [GLONASS-M] 
1 54377U 22161A   26169.64887167  .00000056  00000+0  00000+0 0  9998
2 54377  64.7418 192.6633 0012206 224.8297 135.1194  2.13102010 27668
NAVSTAR 82 (USA 343)    
1 55268U 23009A   26167.62160980  .00000044  00000+0  00000+0 0  9990
2 55268  55.1227 148.5411 0006250 321.9869 156.3274  2.00571344 25231
BEIDOU-3 G4             
1 56564U 23066A   26169.99386138 -.00000287  00000+0  00000+0 0  9990
2 56564   0.4841 332.0413 0004387 179.7829 253.2324  1.00273174 11419
NVS-01 (IRNSS-1J)       
1 56759U 23076A   26169.92056550 -.00000343  00000+0  00000+0 0  9995
2 56759   2.1610 244.2649 0003090  35.8922  87.8029  1.00264064 11139
COSMOS 2569 [GLONASS-K2]
1 57517U 23114A   26169.66121459 -.00000026  00000+0  00000+0 0  9991
2 57517  65.3029  72.5707 0010625 296.8496  63.0808  2.13103689 22291
BEIDOU-3 M28            
1 58654U 23207A   26169.37320185 -.00000058  00000+0  00000+0 0  9997
2 58654  55.7537  62.2629 0003249 347.9613  12.0730  1.86229635 16866
